BEIDOU-3S IGSO-1S       
1 40549U 15019A   26178.80438100 -.00000163  00000+0  00000+0 0  9995
2 40549  49.1741 295.3331 0039098 191.8080 168.8013  1.00249344 41180
NAVSTAR 74 (USA 262)    
1 40730U 15033A   26179.68877973 -.00000014  00000+0  00000+0 0  9990
2 40730  53.9734 266.6121 0115141  30.2336 330.4845  2.00555814 80220
BEIDOU-3S M2S           
1 40748U 15037A   26179.59929838 -.00000084  00000+0  00000+0 0  9998
2 40748  54.8599 301.6527 0008567 258.3318 101.5721  1.86232293 74335
BEIDOU-3S M1S           
1 40749U 15037B   26178.19464110 -.00000096  00000+0  00000+0 0  9994
2 40749  54.8580 301.6893 0003219  62.4123 297.6156  1.86255050 74312
GSAT0206 (GALILEO 10)   
1 40890U 15045B   26179.60239011  .00000070  00000+0  00000+0 0  9998
2 40890  54.9424 221.2890 0001824 328.9873  31.0992  1.70473821 67235
BEIDOU-3S IGSO-2S       
1 40938U 15053A   26179.96992363 -.00000099  00000+0  00000+0 0  9997
2 40938  49.2020 258.6412 0065667 193.1508 268.9330  1.00257545 39471
NAVSTAR 75 (USA 265)    
1 41019U 15062A   26177.75006963 -.00000080  00000+0  00000+0 0  9995
2 41019  56.9659  30.4428 0112188 230.9710 128.0791  2.00567519 78021
GSAT-15                 
1 41028U 15065A   26180.39310594 -.00000246  00000+0  00000+0 0  9994
2 41028   0.0460 260.9515 0004573 177.8217  73.7309  1.00270216 38927
GSAT0209 (GALILEO 12)   
1 41174U 15079A   26179.18392164 -.00000033  00000+0  00000+0 0  9993
2 41174  55.8335 100.9603 0005085 347.1897  12.7761  1.70473803 64966
GSAT0208 (GALILEO 11)   
1 41175U 15079B   26177.05790245 -.00000039  00000+0  00000+0 0  9996
2 41175  55.8311 101.0154 0004595 354.0123   5.9555  1.70473681 65340
IRNSS-1E                
1 41241U 16003A   26176.59836588 -.00000319  00000+0  00000+0 0  9998
2 41241  33.2517  59.6282 0019062 179.1130   2.2203  1.00274592 38164
NAVSTAR 76 (USA 266)    
1 41328U 16007A   26179.33753677 -.00000053  00000+0  00000+0 0  9995
2 41328  55.5304  89.0177 0095604 247.1405 111.8582  2.00551379 76068
COSMOS 2514 [GLONASS-M] 
1 41330U 16008A   26180.48592553 -.00000067  00000+0  00000+0 0  9996
2 41330  65.0137 312.5846 0011738 199.3082 160.6408  2.13102772 80880
BEIDOU-2 IGSO-6         
1 41434U 16021A   26177.11016981 -.00000145  00000+0  00000+0 0  9995
2 41434  60.2385  37.9495 0057558 231.0163 137.2672  1.00258926 37578
IRNSS-1G                
1 41469U 16027A   26180.31309838 -.00000328  00000+0  00000+0 0  9994
2 41469   5.2246  97.1943 0005822   4.7805  57.5633  1.00281539 37300
GSAT0211 (GALILEO 14)   
1 41549U 16030A   26178.94152421  .00000069  00000+0  00000+0 0  9998
2 41549  55.0927 221.3989 0003116 320.4926  39.5816  1.70474008 62858
GSAT0210 (GALILEO 13)   
1 41550U 16030B   26178.02561661  .00000065  00000+0  00000+0 0  9995
2 41550  55.0912 221.4221 0007792 256.4220 103.5859  1.70473957 62832
BEIDOU-2 G7             
1 41586U 16037A   26180.39648595 -.00000344  00000+0  00000+0 0  9997
2 41586   1.7497  69.4211 0006835   2.6211  98.7279  1.00271246  7014
EUTELSAT 117 WEST B     
1 41589U 16038B   26180.33961477  .00000000  00000+0  00000+0 0  9990
2 41589   0.0117 154.8955 0000302 101.3092  26.4883  1.00269030 36782
GSAT0207 (GALILEO 15)   
1 41859U 16069A   26177.71738502 -.00000038  00000+0  00000+0 0  9995
2 41859  55.5042 100.8225 0005006 333.0982  26.8500  1.70473700 59562
GSAT0212 (GALILEO 16)   
1 41860U 16069B   26179.33057380 -.00000033  00000+0  00000+0 0  9990
2 41860  55.5028 100.7730 0004434   6.1382 353.8467  1.70473934 59849
GSAT0213 (GALILEO 17)   
1 41861U 16069C   26179.11118849 -.00000034  00000+0  00000+0 0  9996
2 41861  55.5047 100.7870 0004537 315.9585  43.9839  1.70474290 59707
GSAT0214 (GALILEO 18)   
1 41862U 16069D   26179.25744257 -.00000033  00000+0  00000+0 0  9999
2 41862  55.5035 100.7756 0003548 328.2164  31.7414  1.70473610 59832
SES-15                  
1 42709U 17026A   26180.48725402  .00000070  00000+0  00000+0 0  9992
2 42709   0.0206 334.5743 0001000 149.5569 199.6934  1.00275391  7557
QZS-2 (MICHIBIKI-2)     
1 42738U 17028A   26180.47587749 -.00000118  00000+0  00000+0 0  9999
2 42738  39.4087 242.9730 0758904 269.4027  78.6029  1.00280731  7749
QZS-3 (MICHIBIKI-3)     
1 42917U 17048A   26180.55044823 -.00000337  00000+0  00000+0 0  9993
2 42917   0.0725 142.2624 0002306 313.5386 147.0345  1.00270669 32381
COSMOS 2522 [GLONASS-M] 
1 42939U 17055A   26175.16181676  .00000104  00000+0  00000+0 0  9995
2 42939  64.0776 191.6387 0008409 235.5259 124.4452  2.13101107 68121
QZS-4 (MICHIBIKI-4)     
1 42965U 17062A   26180.32890242 -.00000337  00000+0  00000+0 0  9991
2 42965  40.1013 343.3312 0746687 268.3033 282.2636  1.00296103 31925
BEIDOU-3 M1             
1 43001U 17069A   26179.40913100 -.00000066  00000+0  00000+0 0  9995
2 43001  56.7017  62.7147 0009860 326.3987  33.5922  1.86231517 58814
BEIDOU-3 M2             
1 43002U 17069B   26179.34790919 -.00000066  00000+0  00000+0 0  9990
2 43002  56.7014  62.7523 0008884 352.9823   7.0583  1.86230801 58802
GSAT0215 (GALILEO 19)   
1 43055U 17079A   26179.16063341  .00000069  00000+0  00000+0 0  9993
2 43055  55.0711 221.2046 0003100 263.9664  96.0952  1.70474711 53174
